*******************************************************************************
 Revised: June 21, 2016                 Mars                            499 / 4
 
 PHYSICAL DATA (updated 2019-10-29):
  Vol. mean radius (km) = 3389.92+-0.04   Density (g/cm^3)      =  3.933(5+-4)
  Mass x10^23 (kg)      =    6.4171       Flattening, f         =  1/169.779
  Volume (x10^10 km^3)  =   16.318        Equatorial radius (km)=  3396.19
  Sidereal rot. period  =   24.622962 hr  Sid. rot. rate, rad/s =  0.0000708822 
  Mean solar day (sol)  =   88775.24415 s Polar gravity m/s^2   =  3.758
  Core radius (km)      = ~1700           Equ. gravity  m/s^2   =  3.71
  Geometric Albedo      =    0.150                                              

  GM (km^3/s^2)         = 42828.375214    Mass ratio (Sun/Mars) = 3098703.59
  GM 1-sigma (km^3/s^2) = +- 0.00028      Mass of atmosphere, kg= ~ 2.5 x 10^16
  Mean temperature (K)  =  210            Atmos. pressure (bar) =    0.0056 
  Obliquity to orbit    =   25.19 deg     Max. angular diam.    =  17.9"
  Mean sidereal orb per =    1.88081578 y Visual mag. V(1,0)    =  -1.52
  Mean sidereal orb per =  686.98 d       Orbital speed,  km/s  =  24.13
  Hill's sphere rad. Rp =  319.8          Escape speed, km/s    =   5.027
                                 Perihelion  Aphelion    Mean
  Solar Constant (W/m^2)         717         493         589
  Maximum Planetary IR (W/m^2)   470         315         390
  Minimum Planetary IR (W/m^2)    30          30          30
*******************************************************************************
 
 
*******************************************************************************
Ephemeris / WWW_USER Mon Oct 12 00:01:03 2020 Pasadena, USA      / Horizons    
*******************************************************************************
Target body name: Mars (499)                      {source: mar097}
Center body name: Earth (399)                     {source: mar097}
Center-site name: GEOCENTRIC
*******************************************************************************
Start time      : A.D. 2020-01-01 00:00:00.0000 UT      
Stop  time      : A.D. 2025-01-01 00:00:00.0000 UT      
Step-size       : 360 minutes
*******************************************************************************
Target pole/equ : IAU_MARS                        {West-longitude positive}
Target radii    : 3396.2 x 3396.2 x 3376.2 km     {Equator, meridian, pole}    
Center geodetic : 0.00000000,0.00000000,0.0000000 {E-lon(deg),Lat(deg),Alt(km)}
Center cylindric: 0.00000000,0.00000000,0.0000000 {E-lon(deg),Dxy(km),Dz(km)}
Center pole/equ : High-precision EOP model        {East-longitude positive}
Center radii    : 6378.1 x 6378.1 x 6356.8 km     {Equator, meridian, pole}    
Target primary  : Sun
Vis. interferer : MOON (R_eq= 1737.400) km        {source: mar097}
Rel. light bend : Sun, EARTH                      {source: mar097}
Rel. lght bnd GM: 1.3271E+11, 3.9860E+05 km^3/s^2                              
Atmos refraction: NO (AIRLESS)
RA format       : HMS
Time format     : CAL 
EOP file        : eop.201009.p201231                                           
EOP coverage    : DATA-BASED 1962-JAN-20 TO 2020-OCT-09. PREDICTS-> 2020-DEC-30
Units conversion: 1 au= 149597870.700 km, c= 299792.458 km/s, 1 day= 86400.0 s 
Table cut-offs 1: Elevation (-90.0deg=NO ),Airmass (>38.000=NO), Daylight (NO )
Table cut-offs 2: Solar elongation (  0.0,180.0=NO ),Local Hour Angle( 0.0=NO )
Table cut-offs 3: RA/DEC angular rate (     0.0=NO )                           
*******************************************************************************
 Date__(UT)__HR:MN     ObsSub-LON ObsSub-LAT SunSub-LON SunSub-LAT
******************************************************************
$$SOE
 2024-12-14 12:00      63.618953  14.904112  87.525109   6.668856
 2024-12-14 18:00     151.365918  14.884101 175.141566   6.718544
 2024-12-15 00:00     239.113709  14.863793 262.758023   6.768190
 2024-12-15 06:00     326.862328  14.843188 350.374479   6.817796
 2024-12-15 12:00      54.611774  14.822286  77.990934   6.867360
 2024-12-15 18:00     142.362047  14.801089 165.607388   6.916882
 2024-12-16 00:00     230.113148  14.779595 253.223841   6.966363
 2024-12-16 06:00     317.865077  14.757806 340.840291   7.015801
 2024-12-16 12:00      45.617833  14.735721  68.456739   7.065198
 2024-12-16 18:00     133.371416  14.713342 156.073185   7.114553
 2024-12-17 00:00     221.125826  14.690667 243.689628   7.163865
 2024-12-17 06:00     308.881062  14.667699 331.306067   7.213136
 2024-12-17 12:00      36.637125  14.644436  58.922503   7.262363
 2024-12-17 18:00     124.394014  14.620880 146.538936   7.311548
 2024-12-18 00:00     212.151727  14.597031 234.155363   7.360691
 2024-12-18 06:00     299.910265  14.572889 321.771787   7.409790
 2024-12-18 12:00      27.669625  14.548455  49.388205   7.458847
 2024-12-18 18:00     115.429809  14.523730 137.004618   7.507861
 2024-12-19 00:00     203.190813  14.498713 224.621025   7.556831
 2024-12-19 06:00     290.952638  14.473407 312.237426   7.605758
 2024-12-19 12:00      18.715281  14.447811  39.853822   7.654641
 2024-12-19 18:00     106.478742  14.421926 127.470210   7.703481
 2024-12-20 00:00     194.243019  14.395754 215.086591   7.752277
 2024-12-20 06:00     282.008109  14.369294 302.702965   7.801030
 2024-12-20 12:00       9.774012  14.342547  30.319332   7.849738
 2024-12-20 18:00      97.540725  14.315516 117.935690   7.898402
 2024-12-21 00:00     185.308247  14.288199 205.552040   7.947022
 2024-12-21 06:00     273.076575  14.260600 293.168381   7.995598
 2024-12-21 12:00       0.845706  14.232717  20.784713   8.044129
 2024-12-21 18:00      88.615639  14.204554 108.401036   8.092616
 2024-12-22 00:00     176.386371  14.176110 196.017349   8.141058
 2024-12-22 06:00     264.157898  14.147387 283.633652   8.189455
 2024-12-22 12:00     351.930219  14.118386  11.249944   8.237808
 2024-12-22 18:00      79.703330  14.089108  98.866226   8.286115
 2024-12-23 00:00     167.477228  14.059556 186.482496   8.334377
 2024-12-23 06:00     255.251910  14.029729 274.098755   8.382593
 2024-12-23 12:00     343.027372  13.999630   1.715002   8.430765
 2024-12-23 18:00      70.803611  13.969261  89.331237   8.478890
 2024-12-24 00:00     158.580624  13.938621 176.947460   8.526970
 2024-12-24 06:00     246.358405  13.907715 264.563670   8.575004
 2024-12-24 12:00     334.136953  13.876542 352.179866   8.622993
 2024-12-24 18:00      61.916261  13.845104  79.796049   8.670935
 2024-12-25 00:00     149.696326  13.813404 167.412219   8.718831
 2024-12-25 06:00     237.477144  13.781444 255.028374   8.766681
 2024-12-25 12:00     325.258711  13.749224 342.644514   8.814484
 2024-12-25 18:00      53.041020  13.716747  70.260640   8.862241
 2024-12-26 00:00     140.824068  13.684016 157.876751   8.909952
 2024-12-26 06:00     228.607850  13.651031 245.492846   8.957615
 2024-12-26 12:00     316.392360  13.617796 333.108925   9.005232
 2024-12-26 18:00      44.177593  13.584312  60.724988   9.052802
 2024-12-27 00:00     131.963544  13.550582 148.341035   9.100324
 2024-12-27 06:00     219.750207  13.516607 235.957064   9.147800
 2024-12-27 12:00     307.537577  13.482391 323.573077   9.195228
 2024-12-27 18:00      35.325647  13.447936  51.189072   9.242609
 2024-12-28 00:00     123.114411  13.413243 138.805049   9.289942
 2024-12-28 06:00     210.903864  13.378317 226.421008   9.337227
 2024-12-28 12:00     298.693998  13.343159 314.036949   9.384465
 2024-12-28 18:00      26.484808  13.307771  41.652871   9.431654
 2024-12-29 00:00     114.276287  13.272158 129.268773   9.478796
 2024-12-29 06:00     202.068427  13.236321 216.884657   9.525889
 2024-12-29 12:00     289.861222  13.200264 304.500520   9.572934
 2024-12-29 18:00      17.654666  13.163989  32.116364   9.619931
 2024-12-30 00:00     105.448749  13.127499 119.732187   9.666880
 2024-12-30 06:00     193.243466  13.090798 207.347989   9.713779
 2024-12-30 12:00     281.038809  13.053888 294.963771   9.760630
 2024-12-30 18:00       8.834769  13.016773  22.579531   9.807432
 2024-12-31 00:00      96.631339  12.979457 110.195269   9.854186
 2024-12-31 06:00     184.428511  12.941941 197.810986   9.900890
 2024-12-31 12:00     272.226277  12.904231 285.426681   9.947545
 2024-12-31 18:00       0.024628  12.866328  13.042352   9.994150
 2025-01-01 00:00      87.823556  12.828238 100.658002  10.040706
